{
"type": "FeatureCollection",
"name": "Gallery_new",
"crs": { "type": "name", "properties": { "name": "urn:ogc:def:crs:OGC:1.3:CRS84" } },
"features": [
{ "type": "Feature", "properties": { "id": "node/3229569961", "addr:city": "Yogyakarta", "addr:housenumber": null, "addr:postcode": null, "addr:street": "Jalan Mayor Jenderal Donald Isaac Panjaitan", "address": null, "artwork_type": null, "building": "yes", "building:levels": null, "building:material": null, "building:roof": null, "building:structure": null, "building:use": null, "building:walls": null, "capacity": null, "contact:instagram": null, "description": null, "fee": null, "name": "Cemeti - Institute for Art and Society", "name:en": null, "name:fr": null, "name:id": null, "nohousenumber": null, "opening_hours": "Belum diketahui", "operator": "Tidak Terdefinisi", "operator:type": null, "phone": null, "postal_code": null, "roof:material": null, "since": null, "source": null, "source_ref": null, "tactile_paving": null, "tourism": "gallery", "website": "https://cemeti.art/", "wheelchair": null, "wikidata": "Q115156839", "wikipedia": null, "Alamat": "Jalan Mayor Jenderal Donald Isaac Panjaitan" }, "geometry": { "type": "Point", "coordinates": [ 110.3623894, -7.8176545 ] } },
{ "type": "Feature", "properties": { "id": "node/4240822121", "addr:city": "Palmerah, Central Jakarta", "addr:housenumber": "No.17", "addr:postcode": "11480", "addr:street": "Jl. Palmerah Sel.", "address": null, "artwork_type": null, "building": null, "building:levels": null, "building:material": null, "building:roof": null, "building:structure": null, "building:use": null, "building:walls": null, "capacity": null, "contact:instagram": null, "description": null, "fee": null, "name": "Bentara Budaya", "name:en": null, "name:fr": null, "name:id": null, "nohousenumber": null, "opening_hours": "Belum diketahui", "operator": "Tidak Terdefinisi", "operator:type": null, "phone": null, "postal_code": null, "roof:material": null, "since": null, "source": null, "source_ref": null, "tactile_paving": null, "tourism": "gallery", "website": null, "wheelchair": null, "wikidata": null, "wikipedia": null, "Alamat": "Jl. Palmerah Sel." }, "geometry": { "type": "Point", "coordinates": [ 106.7954636, -6.2103725 ] } },
{ "type": "Feature", "properties": { "id": "node/4258058024", "addr:city": "North Kuta", "addr:housenumber": "No.1", "addr:postcode": "80361", "addr:street": "Jl. Raya Petitenget", "address": null, "artwork_type": null, "building": null, "building:levels": null, "building:material": null, "building:roof": null, "building:structure": null, "building:use": null, "building:walls": null, "capacity": null, "contact:instagram": null, "description": null, "fee": null, "name": "Artissimo Gallery", "name:en": null, "name:fr": null, "name:id": null, "nohousenumber": null, "opening_hours": "Belum diketahui", "operator": "Tidak Terdefinisi", "operator:type": null, "phone": null, "postal_code": null, "roof:material": null, "since": null, "source": null, "source_ref": null, "tactile_paving": null, "tourism": "gallery", "website": null, "wheelchair": null, "wikidata": null, "wikipedia": null, "Alamat": "Jl. Raya Petitenget" }, "geometry": { "type": "Point", "coordinates": [ 115.1644876, -8.6719908 ] } },
{ "type": "Feature", "properties": { "id": "node/4329454377", "addr:city": "Bandung", "addr:housenumber": "58", "addr:postcode": null, "addr:street": "Jl. Pahlawan , Neglasari, Cibeunying Kaler", "address": null, "artwork_type": null, "building": null, "building:levels": null, "building:material": null, "building:roof": null, "building:structure": null, "building:use": null, "building:walls": null, "capacity": null, "contact:instagram": null, "description": null, "fee": null, "name": "Galeri Cinde", "name:en": null, "name:fr": null, "name:id": null, "nohousenumber": null, "opening_hours": "Belum diketahui", "operator": "Tidak Terdefinisi", "operator:type": null, "phone": null, "postal_code": null, "roof:material": null, "since": null, "source": null, "source_ref": null, "tactile_paving": null, "tourism": "gallery", "website": null, "wheelchair": null, "wikidata": null, "wikipedia": null, "Alamat": "Jl. Pahlawan , Neglasari, Cibeunying Kaler" }, "geometry": { "type": "Point", "coordinates": [ 107.6346884, -6.8965886 ] } },
{ "type": "Feature", "properties": { "id": "node/6016935438", "addr:city": "Canggu", "addr:housenumber": "49F", "addr:postcode": "80351", "addr:street": "Jl. Canggu Padang Linjong", "address": null, "artwork_type": null, "building": null, "building:levels": null, "building:material": null, "building:roof": null, "building:structure": null, "building:use": null, "building:walls": null, "capacity": null, "contact:instagram": null, "description": null, "fee": null, "name": "Crate Gallery", "name:en": null, "name:fr": null, "name:id": null, "nohousenumber": null, "opening_hours": "Mo-Su 06:00-17:00", "operator": "LIFESCRATE", "operator:type": null, "phone": null, "postal_code": null, "roof:material": null, "since": null, "source": null, "source_ref": null, "tactile_paving": null, "tourism": "gallery", "website": null, "wheelchair": "limited", "wikidata": null, "wikipedia": null, "Alamat": "Jl. Canggu Padang Linjong" }, "geometry": { "type": "Point", "coordinates": [ 115.1373394, -8.6487245 ] } },
{ "type": "Feature", "properties": { "id": "node/6414599555", "addr:city": "beji", "addr:housenumber": "26", "addr:postcode": "16426", "addr:street": "Jalan Palakali", "address": null, "artwork_type": null, "building": null, "building:levels": null, "building:material": null, "building:roof": null, "building:structure": null, "building:use": null, "building:walls": null, "capacity": null, "contact:instagram": null, "description": null, "fee": null, "name": "Saung Palakali Creative ART", "name:en": "Palakali Creative Art Studio & Gallery", "name:fr": null, "name:id": "Saung Palakali Creative", "nohousenumber": null, "opening_hours": "Belum diketahui", "operator": "Dandy Dzakyesa", "operator:type": null, "phone": null, "postal_code": null, "roof:material": null, "since": null, "source": null, "source_ref": null, "tactile_paving": null, "tourism": "gallery", "website": null, "wheelchair": null, "wikidata": null, "wikipedia": null, "Alamat": "Jalan Palakali" }, "geometry": { "type": "Point", "coordinates": [ 106.8047417, -6.3746677 ] } },
{ "type": "Feature", "properties": { "id": "node/6751879192", "addr:city": null, "addr:housenumber": null, "addr:postcode": null, "addr:street": "Jalan Raya Ubud", "address": null, "artwork_type": null, "building": null, "building:levels": null, "building:material": null, "building:roof": null, "building:structure": null, "building:use": null, "building:walls": null, "capacity": null, "contact:instagram": null, "description": null, "fee": null, "name": "Neka Gallery", "name:en": null, "name:fr": "Neka Gallery", "name:id": null, "nohousenumber": null, "opening_hours": "Belum diketahui", "operator": "Tidak Terdefinisi", "operator:type": null, "phone": null, "postal_code": null, "roof:material": null, "since": null, "source": null, "source_ref": null, "tactile_paving": null, "tourism": "gallery", "website": null, "wheelchair": null, "wikidata": null, "wikipedia": null, "Alamat": "Jalan Raya Ubud" }, "geometry": { "type": "Point", "coordinates": [ 115.2665979, -8.5085538 ] } },
{ "type": "Feature", "properties": { "id": "node/10201090826", "addr:city": "Malang", "addr:housenumber": null, "addr:postcode": "65138", "addr:street": "Jl. Selat Sunda Raya", "address": null, "artwork_type": null, "building": null, "building:levels": null, "building:material": null, "building:roof": null, "building:structure": null, "building:use": null, "building:walls": null, "capacity": null, "contact:instagram": null, "description": null, "fee": null, "name": "Sadikin Pard Gallery", "name:en": null, "name:fr": null, "name:id": null, "nohousenumber": null, "opening_hours": "Belum diketahui", "operator": "Tidak Terdefinisi", "operator:type": null, "phone": null, "postal_code": null, "roof:material": null, "since": null, "source": "POI_GLAM_2022", "source_ref": "POI_GLAM_2022", "tactile_paving": null, "tourism": "gallery", "website": null, "wheelchair": null, "wikidata": null, "wikipedia": null, "Alamat": "Jl. Selat Sunda Raya" }, "geometry": { "type": "Point", "coordinates": [ 112.6567987, -7.9817414 ] } },
{ "type": "Feature", "properties": { "id": "node/10220777712", "addr:city": "Batu", "addr:housenumber": "4", "addr:postcode": "65336", "addr:street": "Gg. XIII", "address": null, "artwork_type": null, "building": null, "building:levels": null, "building:material": null, "building:roof": null, "building:structure": null, "building:use": null, "building:walls": null, "capacity": null, "contact:instagram": null, "description": null, "fee": null, "name": "Galeri Ki Klungsu", "name:en": null, "name:fr": null, "name:id": null, "nohousenumber": null, "opening_hours": "Belum diketahui", "operator": "Tidak Terdefinisi", "operator:type": null, "phone": "+6282142998434", "postal_code": null, "roof:material": null, "since": null, "source": "POI_GLAM_2022", "source_ref": null, "tactile_paving": null, "tourism": "gallery", "website": null, "wheelchair": null, "wikidata": null, "wikipedia": null, "Alamat": "Gg. XIII" }, "geometry": { "type": "Point", "coordinates": [ 112.5278152, -7.8047121 ] } },
{ "type": "Feature", "properties": { "id": "node/10220802210", "addr:city": "Batu", "addr:housenumber": "45", "addr:postcode": "65151", "addr:street": "Jalan Diponegoro", "address": null, "artwork_type": null, "building": null, "building:levels": null, "building:material": null, "building:roof": null, "building:structure": null, "building:use": null, "building:walls": null, "capacity": null, "contact:instagram": null, "description": null, "fee": null, "name": "Pethak Art Space", "name:en": null, "name:fr": null, "name:id": null, "nohousenumber": null, "opening_hours": "Belum diketahui", "operator": "Tidak Terdefinisi", "operator:type": null, "phone": "+6281332914710", "postal_code": null, "roof:material": null, "since": null, "source": "POI_GLAM_2022", "source_ref": null, "tactile_paving": null, "tourism": "gallery", "website": null, "wheelchair": null, "wikidata": null, "wikipedia": null, "Alamat": "Jalan Diponegoro" }, "geometry": { "type": "Point", "coordinates": [ 112.5600566, -7.9111375 ] } },
{ "type": "Feature", "properties": { "id": "node/10221433005", "addr:city": "Batu", "addr:housenumber": "90", "addr:postcode": "65331", "addr:street": "Jalan Imam Bonjol", "address": null, "artwork_type": null, "building": null, "building:levels": null, "building:material": null, "building:roof": null, "building:structure": null, "building:use": null, "building:walls": null, "capacity": null, "contact:instagram": null, "description": null, "fee": null, "name": "Omah Budaya Slamet Batu", "name:en": null, "name:fr": null, "name:id": null, "nohousenumber": null, "opening_hours": "Belum diketahui", "operator": "Tidak Terdefinisi", "operator:type": null, "phone": "+6281210682095", "postal_code": null, "roof:material": null, "since": null, "source": "POI_GLAM_2022", "source_ref": null, "tactile_paving": null, "tourism": "gallery", "website": null, "wheelchair": null, "wikidata": null, "wikipedia": null, "Alamat": "Jalan Imam Bonjol" }, "geometry": { "type": "Point", "coordinates": [ 112.534366, -7.8593244 ] } },
{ "type": "Feature", "properties": { "id": "node/10221467445", "addr:city": "Kota Malang", "addr:housenumber": "867", "addr:postcode": "65119", "addr:street": "Jalan Arif Rahman Hakim", "address": null, "artwork_type": null, "building": null, "building:levels": null, "building:material": null, "building:roof": null, "building:structure": null, "building:use": null, "building:walls": null, "capacity": null, "contact:instagram": null, "description": null, "fee": null, "name": "Galery Nja' Abbas Akub", "name:en": null, "name:fr": null, "name:id": null, "nohousenumber": null, "opening_hours": "Belum diketahui", "operator": "Tidak Terdefinisi", "operator:type": null, "phone": null, "postal_code": null, "roof:material": null, "since": null, "source": "POI_GLAM_2022", "source_ref": null, "tactile_paving": null, "tourism": "gallery", "website": null, "wheelchair": null, "wikidata": null, "wikipedia": null, "Alamat": "Jalan Arif Rahman Hakim" }, "geometry": { "type": "Point", "coordinates": [ 112.628563, -7.9798192 ] } },
{ "type": "Feature", "properties": { "id": "node/10221554949", "addr:city": "Malang", "addr:housenumber": "1", "addr:postcode": "65141", "addr:street": "Jalan Puspo", "address": null, "artwork_type": null, "building": null, "building:levels": null, "building:material": null, "building:roof": null, "building:structure": null, "building:use": null, "building:walls": null, "capacity": null, "contact:instagram": null, "description": null, "fee": null, "name": "Minimaniez Art Space", "name:en": null, "name:fr": null, "name:id": null, "nohousenumber": null, "opening_hours": "Belum diketahui", "operator": "Tidak Terdefinisi", "operator:type": null, "phone": "+6285655137657", "postal_code": null, "roof:material": null, "since": null, "source": "POI_GLAM_2022", "source_ref": null, "tactile_paving": null, "tourism": "gallery", "website": null, "wheelchair": null, "wikidata": null, "wikipedia": null, "Alamat": "Jalan Puspo" }, "geometry": { "type": "Point", "coordinates": [ 112.6335537, -7.9599536 ] } },
{ "type": "Feature", "properties": { "id": "node/10275918905", "addr:city": "DKI Jakarta", "addr:housenumber": null, "addr:postcode": null, "addr:street": "Jalan Kemang Raya", "address": null, "artwork_type": null, "building": null, "building:levels": null, "building:material": null, "building:roof": null, "building:structure": null, "building:use": null, "building:walls": null, "capacity": null, "contact:instagram": null, "description": null, "fee": null, "name": "Edwin's Gallery", "name:en": null, "name:fr": null, "name:id": null, "nohousenumber": null, "opening_hours": "Belum diketahui", "operator": "Tidak Terdefinisi", "operator:type": null, "phone": null, "postal_code": null, "roof:material": null, "since": null, "source": null, "source_ref": null, "tactile_paving": null, "tourism": "gallery", "website": "http://edwinsgallery.com/", "wheelchair": null, "wikidata": "Q65212151", "wikipedia": null, "Alamat": "Jalan Kemang Raya" }, "geometry": { "type": "Point", "coordinates": [ 106.8154163, -6.2589507 ] } },
{ "type": "Feature", "properties": { "id": "node/10275948706", "addr:city": "Central Jakarta", "addr:housenumber": null, "addr:postcode": null, "addr:street": "Jalan Timor", "address": null, "artwork_type": null, "building": null, "building:levels": null, "building:material": null, "building:roof": null, "building:structure": null, "building:use": null, "building:walls": null, "capacity": null, "contact:instagram": null, "description": null, "fee": null, "name": "RUBANAH Underground Hub", "name:en": null, "name:fr": null, "name:id": null, "nohousenumber": null, "opening_hours": "Tu-Sa 12:00-19:00", "operator": "Tidak Terdefinisi", "operator:type": null, "phone": null, "postal_code": null, "roof:material": null, "since": null, "source": null, "source_ref": null, "tactile_paving": null, "tourism": "gallery", "website": "https://rubanahundergroundhub.art", "wheelchair": null, "wikidata": "Q115775791", "wikipedia": null, "Alamat": "Jalan Timor" }, "geometry": { "type": "Point", "coordinates": [ 106.8239454, -6.1888138 ] } },
{ "type": "Feature", "properties": { "id": "node/10278032457", "addr:city": "DKI Jakarta", "addr:housenumber": "30", "addr:postcode": null, "addr:street": "Jalan Kemang Raya", "address": null, "artwork_type": null, "building": null, "building:levels": null, "building:material": null, "building:roof": null, "building:structure": null, "building:use": null, "building:walls": null, "capacity": null, "contact:instagram": null, "description": null, "fee": null, "name": "Hadiprana Art Centre", "name:en": null, "name:fr": null, "name:id": null, "nohousenumber": null, "opening_hours": "Belum diketahui", "operator": "private", "operator:type": null, "phone": "0217182765", "postal_code": null, "roof:material": null, "since": null, "source": null, "source_ref": null, "tactile_paving": null, "tourism": "gallery", "website": "http://www.hadiprana-artcentre.com", "wheelchair": null, "wikidata": null, "wikipedia": null, "Alamat": "Jalan Kemang Raya" }, "geometry": { "type": "Point", "coordinates": [ 106.8153016, -6.260495 ] } },
{ "type": "Feature", "properties": { "id": "node/10278093827", "addr:city": "DKI Jakarta", "addr:housenumber": "BTPN Sinaya, Menara BTPN", "addr:postcode": null, "addr:street": "Jalan Doktor Ide Anak Agung Gde Agung", "address": null, "artwork_type": null, "building": null, "building:levels": null, "building:material": null, "building:roof": null, "building:structure": null, "building:use": null, "building:walls": null, "capacity": null, "contact:instagram": null, "description": null, "fee": null, "name": "LATAR Art Space", "name:en": null, "name:fr": null, "name:id": null, "nohousenumber": null, "opening_hours": "Belum diketahui", "operator": "Tidak Terdefinisi", "operator:type": null, "phone": null, "postal_code": null, "roof:material": null, "since": null, "source": null, "source_ref": null, "tactile_paving": null, "tourism": "gallery", "website": "latar.id", "wheelchair": null, "wikidata": null, "wikipedia": null, "Alamat": "Jalan Doktor Ide Anak Agung Gde Agung" }, "geometry": { "type": "Point", "coordinates": [ 106.8276609, -6.2298473 ] } },
{ "type": "Feature", "properties": { "id": "node/10278151088", "addr:city": "Petojo Selatan", "addr:housenumber": "25", "addr:postcode": null, "addr:street": "Jalan Tanah Abang II", "address": null, "artwork_type": null, "building": null, "building:levels": null, "building:material": null, "building:roof": null, "building:structure": null, "building:use": null, "building:walls": null, "capacity": null, "contact:instagram": null, "description": null, "fee": null, "name": "CAN'S Gallery", "name:en": null, "name:fr": null, "name:id": null, "nohousenumber": null, "opening_hours": "Belum diketahui", "operator": "Tidak Terdefinisi", "operator:type": null, "phone": null, "postal_code": null, "roof:material": null, "since": null, "source": null, "source_ref": null, "tactile_paving": null, "tourism": "gallery", "website": null, "wheelchair": null, "wikidata": null, "wikipedia": null, "Alamat": "Jalan Tanah Abang II" }, "geometry": { "type": "Point", "coordinates": [ 106.8171784, -6.1758489 ] } },
{ "type": "Feature", "properties": { "id": "node/10278188502", "addr:city": "Kebayoran Baru, South Jakarta", "addr:housenumber": "Dharmawangsa Square Level 2 Unit 66", "addr:postcode": null, "addr:street": "Jalan Dharmawangsa VI", "address": null, "artwork_type": null, "building": null, "building:levels": null, "building:material": null, "building:roof": null, "building:structure": null, "building:use": null, "building:walls": null, "capacity": null, "contact:instagram": "https://www.instagram.com/artspheregalleryjkt/?hl=en", "description": null, "fee": null, "name": "Artsphere", "name:en": null, "name:fr": null, "name:id": null, "nohousenumber": null, "opening_hours": "Belum diketahui", "operator": "Tidak Terdefinisi", "operator:type": null, "phone": "08161156000", "postal_code": null, "roof:material": null, "since": null, "source": null, "source_ref": null, "tactile_paving": null, "tourism": "gallery", "website": null, "wheelchair": null, "wikidata": null, "wikipedia": null, "Alamat": "Jalan Dharmawangsa VI" }, "geometry": { "type": "Point", "coordinates": [ 106.8015325, -6.2530452 ] } },
{ "type": "Feature", "properties": { "id": "node/10281304782", "addr:city": "DKI Jakarta", "addr:housenumber": "Wisma 46 - Kota BNI", "addr:postcode": null, "addr:street": "Jalan Jenderal Sudirman", "address": null, "artwork_type": null, "building": null, "building:levels": null, "building:material": null, "building:roof": null, "building:structure": null, "building:use": null, "building:walls": null, "capacity": null, "contact:instagram": null, "description": null, "fee": null, "name": "ISA Art Gallery", "name:en": null, "name:fr": null, "name:id": null, "nohousenumber": null, "opening_hours": "Belum diketahui", "operator": "Tidak Terdefinisi", "operator:type": null, "phone": "08111733553", "postal_code": null, "roof:material": null, "since": null, "source": null, "source_ref": null, "tactile_paving": null, "tourism": "gallery", "website": "isaartanddesign.com", "wheelchair": null, "wikidata": null, "wikipedia": null, "Alamat": "Jalan Jenderal Sudirman" }, "geometry": { "type": "Point", "coordinates": [ 106.8204569, -6.2036407 ] } },
{ "type": "Feature", "properties": { "id": "node/10286066189", "addr:city": "Ubud", "addr:housenumber": null, "addr:postcode": "80571", "addr:street": "Monkey Forest", "address": null, "artwork_type": null, "building": null, "building:levels": null, "building:material": null, "building:roof": null, "building:structure": null, "building:use": null, "building:walls": null, "capacity": null, "contact:instagram": null, "description": null, "fee": null, "name": "Komaneka Fine Art Gallery", "name:en": null, "name:fr": null, "name:id": null, "nohousenumber": null, "opening_hours": "Belum diketahui", "operator": "Tidak Terdefinisi", "operator:type": null, "phone": null, "postal_code": null, "roof:material": null, "since": null, "source": null, "source_ref": null, "tactile_paving": null, "tourism": "gallery", "website": null, "wheelchair": null, "wikidata": null, "wikipedia": null, "Alamat": "Monkey Forest" }, "geometry": { "type": "Point", "coordinates": [ 115.261289, -8.5125505 ] } },
{ "type": "Feature", "properties": { "id": "node/10286105293", "addr:city": "Tuban, Kuta, Kabupaten Badung, Bali, Indonesia", "addr:housenumber": "No  50", "addr:postcode": null, "addr:street": "Jalan Bypass Ngurah Rai", "address": null, "artwork_type": null, "building": "yes", "building:levels": null, "building:material": null, "building:roof": null, "building:structure": null, "building:use": null, "building:walls": null, "capacity": null, "contact:instagram": null, "description": null, "fee": null, "name": "Galeri Zen1", "name:en": null, "name:fr": null, "name:id": null, "nohousenumber": null, "opening_hours": "Belum diketahui", "operator": "Tidak Terdefinisi", "operator:type": null, "phone": null, "postal_code": null, "roof:material": null, "since": null, "source": null, "source_ref": null, "tactile_paving": null, "tourism": "gallery", "website": null, "wheelchair": null, "wikidata": null, "wikipedia": null, "Alamat": "Jalan Bypass Ngurah Rai" }, "geometry": { "type": "Point", "coordinates": [ 115.1803561, -8.7385233 ] } },
{ "type": "Feature", "properties": { "id": "node/10653924700", "addr:city": "Bandung", "addr:housenumber": null, "addr:postcode": "40132", "addr:street": "Jl. Tamansari, Lb. Siliwangi, Kec. Coblong", "address": null, "artwork_type": null, "building": null, "building:levels": null, "building:material": null, "building:roof": null, "building:structure": null, "building:use": null, "building:walls": null, "capacity": null, "contact:instagram": null, "description": null, "fee": null, "name": "Galeri Kebun Seni Tamansari Bandung", "name:en": null, "name:fr": null, "name:id": null, "nohousenumber": null, "opening_hours": "Belum diketahui", "operator": "Tidak Terdefinisi", "operator:type": null, "phone": null, "postal_code": null, "roof:material": null, "since": null, "source": null, "source_ref": null, "tactile_paving": null, "tourism": "gallery", "website": null, "wheelchair": null, "wikidata": null, "wikipedia": null, "Alamat": "Jl. Tamansari, Lb. Siliwangi, Kec. Coblong" }, "geometry": { "type": "Point", "coordinates": [ 107.6078554, -6.8887947 ] } },
{ "type": "Feature", "properties": { "id": "node/10656979386", "addr:city": "Bandung", "addr:housenumber": "386", "addr:postcode": "40115", "addr:street": "Jalan Insinyur Haji Juanda", "address": null, "artwork_type": null, "building": null, "building:levels": null, "building:material": null, "building:roof": null, "building:structure": null, "building:use": null, "building:walls": null, "capacity": null, "contact:instagram": null, "description": null, "fee": null, "name": "Gloya by Krida Nusantara", "name:en": null, "name:fr": null, "name:id": null, "nohousenumber": null, "opening_hours": "Belum diketahui", "operator": "Tidak Terdefinisi", "operator:type": null, "phone": null, "postal_code": null, "roof:material": null, "since": null, "source": null, "source_ref": null, "tactile_paving": null, "tourism": "gallery", "website": null, "wheelchair": "no", "wikidata": null, "wikipedia": null, "Alamat": "Jalan Insinyur Haji Juanda" }, "geometry": { "type": "Point", "coordinates": [ 107.612598, -6.9010128 ] } },
{ "type": "Feature", "properties": { "id": "Belum diketahui", "addr:city": null, "addr:housenumber": null, "addr:postcode": null, "addr:street": null, "address": null, "artwork_type": null, "building": null, "building:levels": null, "building:material": null, "building:roof": null, "building:structure": null, "building:use": null, "building:walls": null, "capacity": null, "contact:instagram": null, "description": null, "fee": null, "name": null, "name:en": null, "name:fr": null, "name:id": null, "nohousenumber": null, "opening_hours": "Belum diketahui", "operator": "Tidak Terdefinisi", "operator:type": null, "phone": null, "postal_code": null, "roof:material": null, "since": null, "source": null, "source_ref": null, "tactile_paving": null, "tourism": null, "website": null, "wheelchair": null, "wikidata": null, "wikipedia": null, "Alamat": null }, "geometry": null }
]
}
